{"type": "FeatureCollection", "features": [ {"type": "Feature", "properties": {"norad_id": 66577, "name": "STARLINK-35815", "group": "last-30-days", "lat": 41.827519047131446, "lon": -114.97819273501698, "alt_km": 409.63878850154106, "timestamp": "2025-12-09T16:56:35.359466+00:00", "meta": {"OBJECT_NAME": "STARLINK-35815", "OBJECT_ID": "2025-268W", "EPOCH": "2025-12-09T12:00:02.000160", "MEAN_MOTION": 15.50614361, "ECCENTRICITY": 0.0001911, "INCLINATION": 43.0006, "RA_OF_ASC_NODE": 140.049, "ARG_OF_PERICENTER": 264.4886, "MEAN_ANOMALY": 126.5101, "EPHEMERIS_TYPE": 0, "CLASSIFICATION_TYPE": "U", "NORAD_CAT_ID": 66577, "ELEMENT_SET_NO": 999, "REV_AT_EPOCH": 414, "BSTAR": -0.0016078, "MEAN_MOTION_DOT": -0.00093664, "MEAN_MOTION_DDOT": 0}, "tle": {"line1": "1 66577U 25268W   25343.50002315 -.00093664  00000+0 -16078-2 0  9990", "line2": "2 66577  43.0006 140.0490 0001911 264.4886 126.5101 15.50614361  4141"}}, "geometry": {"type": "Point", "coordinates": [-114.97819273501698, 41.827519047131446]}}, {"type": "Feature", "properties": {"norad_id": 66578, "name": "STARLINK-35743", "group": "last-30-days", "lat": 41.43521589773976, "lon": -112.46835616100572, "alt_km": 409.696323326586, "timestamp": "2025-12-09T16:56:35.359476+00:00", "meta": {"OBJECT_NAME": "STARLINK-35743", "OBJECT_ID": "2025-268X", "EPOCH": "2025-12-09T12:00:02.000160", "MEAN_MOTION": 15.50614144, "ECCENTRICITY": 0.0001899, "INCLINATION": 43.0005, "RA_OF_ASC_NODE": 140.0442, "ARG_OF_PERICENTER": 267.2055, "MEAN_ANOMALY": 125.7103, "EPHEMERIS_TYPE": 0, "CLASSIFICATION_TYPE": "U", "NORAD_CAT_ID": 66578, "ELEMENT_SET_NO": 999, "REV_AT_EPOCH": 414, "BSTAR": -0.0016012, "MEAN_MOTION_DOT": -0.00093288, "MEAN_MOTION_DDOT": 0}, "tle": {"line1": "1 66578U 25268X   25343.50002315 -.00093288  00000+0 -16012-2 0  9991", "line2": "2 66578  43.0005 140.0442 0001899 267.2055 125.7103 15.50614144  4144"}}, "geometry": {"type": "Point", "coordinates": [-112.46835616100572, 41.43521589773976]}}, {"type": "Feature", "properties": {"norad_id": 66579, "name": "STARLINK-35868", "group": "last-30-days", "lat": 40.98907225585791, "lon": -109.99299546384172, "alt_km": 409.8207116367812, "timestamp": "2025-12-09T16:56:35.359486+00:00", "meta": {"OBJECT_NAME": "STARLINK-35868", "OBJECT_ID": "2025-268Y", "EPOCH": "2025-12-09T12:00:02.000160", "MEAN_MOTION": 15.50623477, "ECCENTRICITY": 0.0002057, "INCLINATION": 43.0003, "RA_OF_ASC_NODE": 140.0389, "ARG_OF_PERICENTER": 264.2569, "MEAN_ANOMALY": 130.5724, "EPHEMERIS_TYPE": 0, "CLASSIFICATION_TYPE": "U", "NORAD_CAT_ID": 66579, "ELEMENT_SET_NO": 999, "REV_AT_EPOCH": 414, "BSTAR": -0.001823, "MEAN_MOTION_DOT": -0.00106025, "MEAN_MOTION_DDOT": 0}, "tle": {"line1": "1 66579U 25268Y   25343.50002315 -.00106025  00000+0 -18230-2 0  9990", "line2": "2 66579  43.0003 140.0389 0002057 264.2569 130.5724 15.50623477  4149"}}, "geometry": {"type": "Point", "coordinates": [-109.99299546384172, 40.98907225585791]}}, {"type": "Feature", "properties": {"norad_id": 66580, "name": "STARLINK-35872", "group": "last-30-days", "lat": 40.48930581035594, "lon": -107.54689139416962, "alt_km": 409.76950047743594, "timestamp": "2025-12-09T16:56:35.359496+00:00", "meta": {"OBJECT_NAME": "STARLINK-35872", "OBJECT_ID": "2025-268Z", "EPOCH": "2025-12-09T12:00:02.000160", "MEAN_MOTION": 15.50637947, "ECCENTRICITY": 0.0001968, "INCLINATION": 43.0001, "RA_OF_ASC_NODE": 140.0341, "ARG_OF_PERICENTER": 259.9571, "MEAN_ANOMALY": 136.7874, "EPHEMERIS_TYPE": 0, "CLASSIFICATION_TYPE": "U", "NORAD_CAT_ID": 66580, "ELEMENT_SET_NO": 999, "REV_AT_EPOCH": 414, "BSTAR": -0.0022248, "MEAN_MOTION_DOT": -0.0012901, "MEAN_MOTION_DDOT": 0}, "tle": {"line1": "1 66580U 25268Z   25343.50002315 -.00129010  00000+0 -22248-2 0  9995", "line2": "2 66580  43.0001 140.0341 0001968 259.9571 136.7874 15.50637947  4142"}}, "geometry": {"type": "Point", "coordinates": [-107.54689139416962, 40.48930581035594]}}, {"type": "Feature", "properties": {"norad_id": 66581, "name": "STARLINK-35744", "group": "last-30-days", "lat": 39.941666565082976, "lon": -105.14924399700452, "alt_km": 409.8882412621533, "timestamp": "2025-12-09T16:56:35.359508+00:00", "meta": {"OBJECT_NAME": "STARLINK-35744", "OBJECT_ID": "2025-268AA", "EPOCH": "2025-12-09T12:00:02.000160", "MEAN_MOTION": 15.50623955, "ECCENTRICITY": 0.0001986, "INCLINATION": 43.0005, "RA_OF_ASC_NODE": 140.0293, "ARG_OF_PERICENTER": 262.5718, "MEAN_ANOMALY": 136.0916, "EPHEMERIS_TYPE": 0, "CLASSIFICATION_TYPE": "U", "NORAD_CAT_ID": 66581, "ELEMENT_SET_NO": 999, "REV_AT_EPOCH": 409, "BSTAR": -0.0018606, "MEAN_MOTION_DOT": -0.00108179, "MEAN_MOTION_DDOT": 0}, "tle": {"line1": "1 66581U 25268AA  25343.50002315 -.00108179  00000+0 -18606-2 0  9992", "line2": "2 66581  43.0005 140.0293 0001986 262.5718 136.0916 15.50623955  4094"}}, "geometry": {"type": "Point", "coordinates": [-105.14924399700452, 39.941666565082976]}}, {"type": "Feature", "properties": {"norad_id": 66582, "name": "STARLINK-35746", "group": "last-30-days", "lat": 39.34373761327398, "lon": -102.78666030769074, "alt_km": 409.9615196122877, "timestamp": "2025-12-09T16:56:35.359520+00:00", "meta": {"OBJECT_NAME": "STARLINK-35746", "OBJECT_ID": "2025-268AB", "EPOCH": "2025-12-09T12:00:02.000160", "MEAN_MOTION": 15.50617169, "ECCENTRICITY": 0.0001943, "INCLINATION": 43.0006, "RA_OF_ASC_NODE": 140.0247, "ARG_OF_PERICENTER": 264.5314, "MEAN_ANOMALY": 136.0508, "EPHEMERIS_TYPE": 0, "CLASSIFICATION_TYPE": "U", "NORAD_CAT_ID": 66582, "ELEMENT_SET_NO": 999, "REV_AT_EPOCH": 414, "BSTAR": -0.0016616, "MEAN_MOTION_DOT": -0.00096761, "MEAN_MOTION_DDOT": 0}, "tle": {"line1": "1 66582U 25268AB  25343.50002315 -.00096761  00000+0 -16616-2 0  9995", "line2": "2 66582  43.0006 140.0247 0001943 264.5314 136.0508 15.50617169  4145"}}, "geometry": {"type": "Point", "coordinates": [-102.78666030769074, 39.34373761327398]}}, {"type": "Feature", "properties": {"norad_id": 66583, "name": "STARLINK-35941", "group": "last-30-days", "lat": 38.69802787362798, "lon": -100.46465741795774, "alt_km": 410.1068527989919, "timestamp": "2025-12-09T16:56:35.359530+00:00", "meta": {"OBJECT_NAME": "STARLINK-35941", "OBJECT_ID": "2025-268AC", "EPOCH": "2025-12-09T12:00:02.000160", "MEAN_MOTION": 15.50622872, "ECCENTRICITY": 0.0002066, "INCLINATION": 43.0006, "RA_OF_ASC_NODE": 140.0193, "ARG_OF_PERICENTER": 264.0828, "MEAN_ANOMALY": 138.4156, "EPHEMERIS_TYPE": 0, "CLASSIFICATION_TYPE": "U", "NORAD_CAT_ID": 66583, "ELEMENT_SET_NO": 999, "REV_AT_EPOCH": 414, "BSTAR": -0.0018286, "MEAN_MOTION_DOT": -0.00106343, "MEAN_MOTION_DDOT": 0}, "tle": {"line1": "1 66583U 25268AC  25343.50002315 -.00106343  00000+0 -18286-2 0  9999", "line2": "2 66583  43.0006 140.0193 0002066 264.0828 138.4156 15.50622872  4140"}}, "geometry": {"type": "Point", "coordinates": [-100.46465741795774, 38.69802787362798]}}, {"type": "Feature", "properties": {"norad_id": 66584, "name": "STARLINK-35939", "group": "last-30-days", "lat": 38.006958355675806, "lon": -98.18361813500576, "alt_km": 410.1336817989959, "timestamp": "2025-12-09T16:56:35.359540+00:00", "meta": {"OBJECT_NAME": "STARLINK-35939", "OBJECT_ID": "2025-268AD", "EPOCH": "2025-12-09T12:00:02.000160", "MEAN_MOTION": 15.50638201, "ECCENTRICITY": 0.0001991, "INCLINATION": 43.0006, "RA_OF_ASC_NODE": 140.0158, "ARG_OF_PERICENTER": 264.1793, "MEAN_ANOMALY": 140.2293, "EPHEMERIS_TYPE": 0, "CLASSIFICATION_TYPE": "U", "NORAD_CAT_ID": 66584, "ELEMENT_SET_NO": 999, "REV_AT_EPOCH": 414, "BSTAR": -0.0022381, "MEAN_MOTION_DOT": -0.00129769, "MEAN_MOTION_DDOT": 0}, "tle": {"line1": "1 66584U 25268AD  25343.50002315 -.00129769  00000+0 -22381-2 0  9998", "line2": "2 66584  43.0006 140.0158 0001991 264.1793 140.2293 15.50638201  4146"}}, "geometry": {"type": "Point", "coordinates": [-98.18361813500576, 38.006958355675806]}}, {"type": "Feature", "properties": {"norad_id": 66585, "name": "STARLINK-35963", "group": "last-30-days", "lat": 37.26992774356025, "lon": -95.93971625531213, "alt_km": 410.13729732400225, "timestamp": "2025-12-09T16:56:35.359552+00:00", "meta": {"OBJECT_NAME": "STARLINK-35963", "OBJECT_ID": "2025-268AE", "EPOCH": "2025-12-09T12:00:02.000160", "MEAN_MOTION": 15.50588989, "ECCENTRICITY": 0.0001606, "INCLINATION": 43.0006, "RA_OF_ASC_NODE": 140.0114, "ARG_OF_PERICENTER": 271.9173, "MEAN_ANOMALY": 134.4381, "EPHEMERIS_TYPE": 0, "CLASSIFICATION_TYPE": "U", "NORAD_CAT_ID": 66585, "ELEMENT_SET_NO": 999, "REV_AT_EPOCH": 414, "BSTAR": -0.0010986, "MEAN_MOTION_DOT": -0.00064285, "MEAN_MOTION_DDOT": 0}, "tle": {"line1": "1 66585U 25268AE  25343.50002315 -.00064285  00000+0 -10986-2 0  9998", "line2": "2 66585  43.0006 140.0114 0001606 271.9173 134.4381 15.50588989  4140"}}, "geometry": {"type": "Point", "coordinates": [-95.93971625531213, 37.26992774356025]}}, {"type": "Feature", "properties": {"norad_id": 66586, "name": "TJS-21", "group": "last-30-days", "lat": -62.58157544345634, "lon": 59.044243127318126, "alt_km": 2135.2065793980573, "timestamp": "2025-12-09T16:56:35.359571+00:00", "meta": {"OBJECT_NAME": "TJS-21", "OBJECT_ID": "2025-269A", "EPOCH": "2025-12-09T05:37:30.491616", "MEAN_MOTION": 2.0056442, "ECCENTRICITY": 0.6805592, "INCLINATION": 63.2636, "RA_OF_ASC_NODE": 162.6946, "ARG_OF_PERICENTER": 269.796, "MEAN_ANOMALY": 18.652, "EPHEMERIS_TYPE": 0, "CLASSIFICATION_TYPE": "U", "NORAD_CAT_ID": 66586, "ELEMENT_SET_NO": 999, "REV_AT_EPOCH": 36, "BSTAR": -0.040942, "MEAN_MOTION_DOT": 1.078e-05, "MEAN_MOTION_DDOT": 0}, "tle": {"line1": "1 66586U 25269A   25343.23438069  .00001078  00000+0 -40942-1 0  9993", "line2": "2 66586  63.2636 162.6946 6805592 269.7960  18.6520  2.00564420   361"}}, "geometry": {"type": "Point", "coordinates": [59.044243127318126, -62.58157544345634]}}]}